SITRO-AIS 26            
1 59067U 24039S   26032.96849200  .00004499  00000+0  35838-3 0  9991
2 59067  95.3958 142.1509 0150003  81.1464 280.6711 14.92099845104543
SITRO-AIS 27            
1 59068U 24039T   26032.97520205  .00004865  00000+0  38409-3 0  9998
2 59068  95.3960 142.3675 0149194  80.0501 281.7526 14.92486069104568
SITRO-AIS 28            
1 59071U 24039U   26032.95576348  .00004332  00000+0  34223-3 0  9998
2 59071  95.3960 142.3945 0148925  79.9699 281.8293 14.92520899104560
GRBBETA                 
1 60237U 24128C   26032.97559720  .00004485  00000+0  31623-3 0  9990
2 60237  61.9923 330.2357 0054224 106.8502 253.8547 15.05360307 85908
OOV-CUBE (TUBSAT-30)    
1 60240U 24128F   26032.94891905  .00002603  00000+0  20705-3 0  9994
2 60240  61.9970 336.8877 0056848 104.7946 255.9453 15.01983595 85798
ROBUSTA-3A (MEDITERRAN*)
1 60243U 24128J   26032.96449559  .00008676  00000+0  53572-3 0  9997
2 60243  61.9889 325.6391 0054638 101.0815 259.6430 15.09320913 85992
LASARSAT                
1 62391U 24247Q   26032.13985666  .00028036  00000+0  74734-3 0  9993
2 62391  44.9782 301.8339 0001671 191.9198 168.1649 15.37717734 62319
CROCUBE                 
1 62394U 24247T   26032.12912122  .00030696  00000+0  79315-3 0  9997
2 62394  44.9753 300.8377 0001574 157.1316 202.9641 15.38634826 62320
