[{"OBJECT_NAME":"SITRO-AIS 26","OBJECT_ID":"2024-039S","EPOCH":"2026-02-01T23:14:37.708800","MEAN_MOTION":14.92099845,"ECCENTRICITY":0.01500037,"INCLINATION":95.3958,"RA_OF_ASC_NODE":142.1509,"ARG_OF_PERICENTER":81.1464,"MEAN_ANOMALY":280.6711,"EPHEMERIS_TYPE":0,"CLASSIFICATION_TYPE":"U","NORAD_CAT_ID":59067,"ELEMENT_SET_NO":999,"REV_AT_EPOCH":10454,"BSTAR":0.00035837553,"MEAN_MOTION_DOT":4.499e-5,"MEAN_MOTION_DDOT":0},{"OBJECT_NAME":"SITRO-AIS 27","OBJECT_ID":"2024-039T","EPOCH":"2026-02-01T23:24:17.457120","MEAN_MOTION":14.92486069,"ECCENTRICITY":0.01491941,"INCLINATION":95.396,"RA_OF_ASC_NODE":142.3675,"ARG_OF_PERICENTER":80.0501,"MEAN_ANOMALY":281.7526,"EPHEMERIS_TYPE":0,"CLASSIFICATION_TYPE":"U","NORAD_CAT_ID":59068,"ELEMENT_SET_NO":999,"REV_AT_EPOCH":10456,"BSTAR":0.00038408571,"MEAN_MOTION_DOT":4.865e-5,"MEAN_MOTION_DDOT":0},{"OBJECT_NAME":"SITRO-AIS 28","OBJECT_ID":"2024-039U","EPOCH":"2026-02-01T22:56:17.964672","MEAN_MOTION":14.92520899,"ECCENTRICITY":0.01489258,"INCLINATION":95.396,"RA_OF_ASC_NODE":142.3945,"ARG_OF_PERICENTER":79.9699,"MEAN_ANOMALY":281.8293,"EPHEMERIS_TYPE":0,"CLASSIFICATION_TYPE":"U","NORAD_CAT_ID":59071,"ELEMENT_SET_NO":999,"REV_AT_EPOCH":10456,"BSTAR":0.00034223074,"MEAN_MOTION_DOT":4.332e-5,"MEAN_MOTION_DDOT":0},{"OBJECT_NAME":"GRBBETA","OBJECT_ID":"2024-128C","EPOCH":"2026-02-01T23:24:51.598080","MEAN_MOTION":15.05360307,"ECCENTRICITY":0.0054224,"INCLINATION":61.9923,"RA_OF_ASC_NODE":330.2357,"ARG_OF_PERICENTER":106.8502,"MEAN_ANOMALY":253.8547,"EPHEMERIS_TYPE":0,"CLASSIFICATION_TYPE":"U","NORAD_CAT_ID":60237,"ELEMENT_SET_NO":999,"REV_AT_EPOCH":8590,"BSTAR":0.00031622748,"MEAN_MOTION_DOT":4.485e-5,"MEAN_MOTION_DDOT":0},{"OBJECT_NAME":"OOV-CUBE (TUBSAT-30)","OBJECT_ID":"2024-128F","EPOCH":"2026-02-01T22:46:26.605920","MEAN_MOTION":15.01983595,"ECCENTRICITY":0.00568481,"INCLINATION":61.997,"RA_OF_ASC_NODE":336.8877,"ARG_OF_PERICENTER":104.7946,"MEAN_ANOMALY":255.9453,"EPHEMERIS_TYPE":0,"CLASSIFICATION_TYPE":"U","NORAD_CAT_ID":60240,"ELEMENT_SET_NO":999,"REV_AT_EPOCH":8579,"BSTAR":0.00020704644,"MEAN_MOTION_DOT":2.603e-5,"MEAN_MOTION_DDOT":0},{"OBJECT_NAME":"ROBUSTA-3A (MEDITERRANEE)","OBJECT_ID":"2024-128J","EPOCH":"2026-02-01T23:08:52.418976","MEAN_MOTION":15.09320913,"ECCENTRICITY":0.0054638,"INCLINATION":61.9889,"RA_OF_ASC_NODE":325.6391,"ARG_OF_PERICENTER":101.0815,"MEAN_ANOMALY":259.643,"EPHEMERIS_TYPE":0,"CLASSIFICATION_TYPE":"U","NORAD_CAT_ID":60243,"ELEMENT_SET_NO":999,"REV_AT_EPOCH":8599,"BSTAR":0.00053572239,"MEAN_MOTION_DOT":8.676e-5,"MEAN_MOTION_DDOT":0},{"OBJECT_NAME":"LASARSAT","OBJECT_ID":"2024-247Q","EPOCH":"2026-02-01T03:21:23.615424","MEAN_MOTION":15.37717734,"ECCENTRICITY":0.00016719,"INCLINATION":44.9782,"RA_OF_ASC_NODE":301.8339,"ARG_OF_PERICENTER":191.9198,"MEAN_ANOMALY":168.1649,"EPHEMERIS_TYPE":0,"CLASSIFICATION_TYPE":"U","NORAD_CAT_ID":62391,"ELEMENT_SET_NO":999,"REV_AT_EPOCH":6231,"BSTAR":0.00074734121,"MEAN_MOTION_DOT":0.00028036,"MEAN_MOTION_DDOT":0},{"OBJECT_NAME":"CROCUBE","OBJECT_ID":"2024-247T","EPOCH":"2026-02-01T03:05:56.073408","MEAN_MOTION":15.38634826,"ECCENTRICITY":0.00015745,"INCLINATION":44.9753,"RA_OF_ASC_NODE":300.8377,"ARG_OF_PERICENTER":157.1316,"MEAN_ANOMALY":202.9641,"EPHEMERIS_TYPE":0,"CLASSIFICATION_TYPE":"U","NORAD_CAT_ID":62394,"ELEMENT_SET_NO":999,"REV_AT_EPOCH":6232,"BSTAR":0.00079314849,"MEAN_MOTION_DOT":0.00030696,"MEAN_MOTION_DDOT":0}]
